{"type": "FeatureCollection", "properties": {"source": "derived (voronoi from OSM place anchors)", "provenance": "Interim: anchor Voronoi clipped to the buffered OSM city outline. Dagupan has no published barangay polygons (OSM admin check 2026-10-07); LGU/PSA request in progress. Drop an official data/app_layers/brgy_boundaries.geojson and re-run to switch.", "built_at": "2026-10-07T00:14"}, "features": [{"type": "Feature", "properties": {"name": "Bonuan Gueset", "source": "derived (voronoi from OSM place anchors)"}, "geometry": {"type": "Polygon", "coordinates": [[[120.34563618987649, 16.108975333002206], [120.3524327431771, 16.064438720567967], [120.34671039178166, 16.059961567265045], [120.33887948691556, 16.061072926480644], [120.33802674697765, 16.061783580726694], [120.27751631079907, 16.179202285046625], [120.29163539600732, 16.178361640707077], [120.34563618987649, 16.108975333002206]]]}}, {"type": "Feature", "properties": {"name": "Pantal", "source": "derived (voronoi from OSM place anchors)"}, "geometry": {"type": "Polygon", "coordinates": [[[120.33207247897504, 16.050900320281368], [120.33887948691556, 16.061072926480644], [120.34671039178166, 16.059961567265045], [120.34761115461683, 16.055465908308737], [120.33864614057846, 16.042328949870793], [120.33476041873294, 16.042925748576472], [120.33207247897504, 16.050900320281368]]]}}, {"type": "Feature", "properties": {"name": "Bonuan Boquig", "source": "derived (voronoi from OSM place anchors)"}, "geometry": {"type": "Polygon", "coordinates": [[[120.34563618987649, 16.108975333002206], [120.37131970271429, 16.087677190620834], [120.36791952536676, 16.09005226265921], [120.36596580954337, 16.089204360367983], [120.36627457418896, 16.087963750321197], [120.3689700247789, 16.08626623731616], [120.36935391273961, 16.084136791929893], [120.37235428412554, 16.08280032077014], [120.37360587668161, 16.07916969397748], [120.37284976461943, 16.077911327591945], [120.37100390533959, 16.07687732300864], [120.36869134508767, 16.07323566556209], [120.3659071383213, 16.0724052047521], [120.36348683709299, 16.068712437365576], [120.35958813673282, 16.067803748599943], [120.36051061798112, 16.066847040875935], [120.36134278904426, 16.067688978467284], [120.36239878965075, 16.06767555365191], [120.36328819088165, 16.066944350574264], [120.36338751325509, 16.06594503561102], [120.3524327431771, 16.064438720567967], [120.34563618987649, 16.108975333002206]]]}}, {"type": "Feature", "properties": {"name": "Bonuan Binloc", "source": "derived (voronoi from OSM place anchors)"}, "geometry": {"type": "Polygon", "coordinates": [[[120.34563618987649, 16.108975333002206], [120.29163539600732, 16.178361640707077], [120.30494572437462, 16.177568274780764], [120.3199174833119, 16.17869888921712], [120.34736731491131, 16.185880756754734], [120.34836445044408, 16.185544008602488], [120.37449003235982, 16.11281835442896], [120.37871349811638, 16.11339890147653], [120.38500199876636, 16.111744083813075], [120.3849233236296, 16.10965130919249], [120.38302113878312, 16.107371635415042], [120.38652735275456, 16.10549697151567], [120.387135956473, 16.103119008737096], [120.38594218907129, 16.101043838445626], [120.38197593293408, 16.097981504638454], [120.3811375954951, 16.094315083792537], [120.37997288943296, 16.092793018065283], [120.37325023566899, 16.088053266322053], [120.37168035183883, 16.087621073587304], [120.34563618987649, 16.108975333002206]]]}}, {"type": "Feature", "properties": {"name": "Lucao", "source": "derived (voronoi from OSM place anchors)"}, "geometry": {"type": "Polygon", "coordinates": [[[120.33176750482389, 16.016508363202792], [120.33074567901723, 16.017420998037775], [120.32003677502587, 16.010566719668446], [120.31668917137415, 16.009213723825702], [120.31009857502424, 16.025392524319024], [120.3173644489254, 16.02861496686127], [120.33152354041665, 16.020004699148437], [120.33176750482389, 16.016508363202792]]]}}, {"type": "Feature", "properties": {"name": "Malued", "source": "derived (voronoi from OSM place anchors)"}, "geometry": {"type": "Polygon", "coordinates": [[[120.33337695374452, 16.031889897475466], [120.33921215631875, 16.02951941475466], [120.33892067985232, 16.02623382160533], [120.33262013874307, 16.02226900178095], [120.33113516504258, 16.02857634861004], [120.33337695374452, 16.031889897475466]]]}}, {"type": "Feature", "properties": {"name": "Mayombo", "source": "derived (voronoi from OSM place anchors)"}, "geometry": {"type": "Polygon", "coordinates": [[[120.34228723957597, 16.03926683863551], [120.34842583297032, 16.050382316223946], [120.3538036960905, 16.03838150494869], [120.35333315681012, 16.037818138653837], [120.3480002091392, 16.036210758022733], [120.34297736120746, 16.037490684030097], [120.34228723957597, 16.03926683863551]]]}}, {"type": "Feature", "properties": {"name": "Carael", "source": "derived (voronoi from OSM place anchors)"}, "geometry": {"type": "Polygon", "coordinates": [[[120.31650698325349, 16.04637476667571], [120.32310245948203, 16.037228022072235], [120.32189564884794, 16.033915996040893], [120.3173644489254, 16.02861496686127], [120.31009857502424, 16.025392524319024], [120.30343070815607, 16.042549633397524], [120.31650698325349, 16.04637476667571]]]}}, {"type": "Feature", "properties": {"name": "Calmay", "source": "derived (voronoi from OSM place anchors)"}, "geometry": {"type": "Polygon", "coordinates": [[[120.32310245948203, 16.037228022072235], [120.31650698325349, 16.04637476667571], [120.31806466404407, 16.049586025503178], [120.33088327379161, 16.050450403929954], [120.32391665797105, 16.037502461084525], [120.32310245948203, 16.037228022072235]]]}}, {"type": "Feature", "properties": {"name": "Caranglaan", "source": "derived (voronoi from OSM place anchors)"}, "geometry": {"type": "Polygon", "coordinates": [[[120.34747342124429, 16.026798981896828], [120.34643975548762, 16.03000071501426], [120.3480002091392, 16.036210758022733], [120.35333315681012, 16.037818138653837], [120.35531677774844, 16.02572181037604], [120.35407077721399, 16.024433095782005], [120.35294591988362, 16.024371118598744], [120.34747342124429, 16.026798981896828]]]}}, {"type": "Feature", "properties": {"name": "Pugaro Suit", "source": "derived (voronoi from OSM place anchors)"}, "geometry": {"type": "Polygon", "coordinates": [[[120.33802674697765, 16.061783580726694], [120.3163253413009, 16.05963885790451], [120.28529708735485, 16.089213121082096], [120.24882748821489, 16.182992651462726], [120.2491876863312, 16.18406436503324], [120.27751631079907, 16.179202285046625], [120.33802674697765, 16.061783580726694]]]}}, {"type": "Feature", "properties": {"name": "Tapuac", "source": "derived (voronoi from OSM place anchors)"}, "geometry": {"type": "Polygon", "coordinates": [[[120.32189564884794, 16.033915996040893], [120.32310245948203, 16.037228022072235], [120.33164862844608, 16.037936900010525], [120.33330037050743, 16.03613313025292], [120.33337695374452, 16.031889897475466], [120.33113516504258, 16.02857634861004], [120.32189564884794, 16.033915996040893]]]}}, {"type": "Feature", "properties": {"name": "Pogo Chico", "source": "derived (voronoi from OSM place anchors)"}, "geometry": {"type": "Polygon", "coordinates": [[[120.33476041873294, 16.042925748576472], [120.33864614057846, 16.042328949870793], [120.34228723957597, 16.03926683863551], [120.34297736120746, 16.037490684030097], [120.34024877268666, 16.035085357304364], [120.33330037050743, 16.03613313025292], [120.33164862844608, 16.037936900010525], [120.33476041873294, 16.042925748576472]]]}}, {"type": "Feature", "properties": {"name": "Bacayao Norte", "source": "derived (voronoi from OSM place anchors)"}, "geometry": {"type": "Polygon", "coordinates": [[[120.3480002091392, 16.036210758022733], [120.34643975548762, 16.03000071501426], [120.34000123830924, 16.03078954632316], [120.34024877268666, 16.035085357304364], [120.34297736120746, 16.037490684030097], [120.3480002091392, 16.036210758022733]]]}}, {"type": "Feature", "properties": {"name": "Poblacion Oeste", "source": "derived (voronoi from OSM place anchors)"}, "geometry": {"type": "Polygon", "coordinates": [[[120.32391665797105, 16.037502461084525], [120.33088327379161, 16.050450403929954], [120.33207247897504, 16.050900320281368], [120.33476041873294, 16.042925748576472], [120.33164862844608, 16.037936900010525], [120.32391665797105, 16.037502461084525]]]}}, {"type": "Feature", "properties": {"name": "Mangin", "source": "derived (voronoi from OSM place anchors)"}, "geometry": {"type": "Polygon", "coordinates": [[[120.35969448638203, 16.039387110516092], [120.3614024941621, 16.041844806161055], [120.36709550955649, 16.043116177509994], [120.37448032487092, 16.034985979240968], [120.3729261557387, 16.032806361965413], [120.3714527906572, 16.032641103914024], [120.36773810467798, 16.03501100384656], [120.36388659513388, 16.035575066500382], [120.36328811828815, 16.035239711793654], [120.35969448638203, 16.039387110516092]]]}}, {"type": "Feature", "properties": {"name": "Bolosan", "source": "derived (voronoi from OSM place anchors)"}, "geometry": {"type": "Polygon", "coordinates": [[[120.36982254151506, 16.053770611550853], [120.37162839386752, 16.052425304019927], [120.37140573399272, 16.05138982485545], [120.37021414443642, 16.050956002973], [120.37082953072176, 16.049450730139753], [120.37232445717692, 16.04939783416722], [120.36709550955649, 16.043116177509994], [120.3614024941621, 16.041844806161055], [120.3606110184001, 16.04860958128412], [120.36982254151506, 16.053770611550853]]]}}, {"type": "Feature", "properties": {"name": "Tebeng", "source": "derived (voronoi from OSM place anchors)"}, "geometry": {"type": "Polygon", "coordinates": [[[120.36328811828815, 16.035239711793654], [120.36246367228156, 16.03460822428696], [120.36239052017295, 16.03238840371989], [120.3605964889151, 16.031326840391554], [120.3615321333352, 16.02995651924186], [120.36130096267856, 16.02802895463461], [120.35531677774844, 16.02572181037604], [120.35333315681012, 16.037818138653837], [120.3538036960905, 16.03838150494869], [120.35969448638203, 16.039387110516092], [120.36328811828815, 16.035239711793654]]]}}, {"type": "Feature", "properties": {"name": "Salapingao", "source": "derived (voronoi from OSM place anchors)"}, "geometry": {"type": "Polygon", "coordinates": [[[120.31650698325349, 16.04637476667571], [120.30343070815607, 16.042549633397524], [120.28529708735485, 16.089213121082096], [120.3163253413009, 16.05963885790451], [120.31806466404407, 16.049586025503178], [120.31650698325349, 16.04637476667571]]]}}, {"type": "Feature", "properties": {"name": "Salisay", "source": "derived (voronoi from OSM place anchors)"}, "geometry": {"type": "Polygon", "coordinates": [[[120.36709550955649, 16.043116177509994], [120.37232445717692, 16.04939783416722], [120.37412450794895, 16.0485002688159], [120.3754718393965, 16.048539172942178], [120.37711273302544, 16.047476250937493], [120.37962624824256, 16.04719820311902], [120.38180673415012, 16.042914021348853], [120.37989769173028, 16.039821196339915], [120.3806517328188, 16.03691545499027], [120.37982128292568, 16.03530221447602], [120.37706042425962, 16.034564385690622], [120.37499857053699, 16.037640817301746], [120.37448032487092, 16.034985979240968], [120.36709550955649, 16.043116177509994]]]}}, {"type": "Feature", "properties": {"name": "Bacayao Sur", "source": "derived (voronoi from OSM place anchors)"}, "geometry": {"type": "Polygon", "coordinates": [[[120.35294591988362, 16.024371118598744], [120.35163424066424, 16.022801256640204], [120.34363106632308, 16.019114873849258], [120.34273602702329, 16.02473714124744], [120.34747342124429, 16.026798981896828], [120.35294591988362, 16.024371118598744]]]}}, {"type": "Feature", "properties": {"name": "Lasip Grande", "source": "derived (voronoi from OSM place anchors)"}, "geometry": {"type": "Polygon", "coordinates": [[[120.34000123830924, 16.03078954632316], [120.34643975548762, 16.03000071501426], [120.34747342124429, 16.026798981896828], [120.34273602702329, 16.02473714124744], [120.33892067985232, 16.02623382160533], [120.33921215631875, 16.02951941475466], [120.34000123830924, 16.03078954632316]]]}}, {"type": "Feature", "properties": {"name": "Tambac", "source": "derived (voronoi from OSM place anchors)"}, "geometry": {"type": "Polygon", "coordinates": [[[120.3614024941621, 16.041844806161055], [120.35969448638203, 16.039387110516092], [120.3538036960905, 16.03838150494869], [120.34842583297032, 16.050382316223946], [120.34762620678308, 16.057258668139006], [120.3606110184001, 16.04860958128412], [120.3614024941621, 16.041844806161055]]]}}, {"type": "Feature", "properties": {"name": "Pogo Grande", "source": "derived (voronoi from OSM place anchors)"}, "geometry": {"type": "Polygon", "coordinates": [[[120.33330037050743, 16.03613313025292], [120.34024877268666, 16.035085357304364], [120.34000123830924, 16.03078954632316], [120.33921215631875, 16.02951941475466], [120.33337695374452, 16.031889897475466], [120.33330037050743, 16.03613313025292]]]}}, {"type": "Feature", "properties": {"name": "Mamalingling", "source": "derived (voronoi from OSM place anchors)"}, "geometry": {"type": "Polygon", "coordinates": [[[120.34762620678308, 16.057258668139006], [120.34671039178166, 16.059961567265045], [120.3524327431771, 16.064438720567967], [120.36338751325509, 16.06594503561102], [120.36270734574012, 16.06442450889559], [120.36712277407456, 16.06153461688754], [120.36706199932377, 16.057043620974405], [120.36982254151506, 16.053770611550853], [120.3606110184001, 16.04860958128412], [120.34762620678308, 16.057258668139006]]]}}, {"type": "Feature", "properties": {"name": "Herrero", "source": "derived (voronoi from OSM place anchors)"}, "geometry": {"type": "Polygon", "coordinates": [[[120.33864614057846, 16.042328949870793], [120.34761115461683, 16.055465908308737], [120.34842583297032, 16.050382316223946], [120.34228723957597, 16.03926683863551], [120.33864614057846, 16.042328949870793]]]}}, {"type": "Feature", "properties": {"name": "Lomboy", "source": "derived (voronoi from OSM place anchors)"}, "geometry": {"type": "Polygon", "coordinates": [[[120.33207247897504, 16.050900320281368], [120.31806466404407, 16.049586025503178], [120.3163253413009, 16.05963885790451], [120.33802674697765, 16.061783580726694], [120.33887948691556, 16.061072926480644], [120.33207247897504, 16.050900320281368]]]}}, {"type": "Feature", "properties": {"name": "Lasip Chico", "source": "derived (voronoi from OSM place anchors)"}, "geometry": {"type": "Polygon", "coordinates": [[[120.34273602702329, 16.02473714124744], [120.34363106632308, 16.019114873849258], [120.33593784831409, 16.016305023556033], [120.33176750482389, 16.016508363202792], [120.33152354041665, 16.020004699148437], [120.33262013874307, 16.02226900178095], [120.33892067985232, 16.02623382160533], [120.34273602702329, 16.02473714124744]]]}}, {"type": "Feature", "properties": {"name": "Barangay IV", "source": "derived (voronoi from OSM place anchors)"}, "geometry": {"type": "Polygon", "coordinates": [[[120.33262013874307, 16.02226900178095], [120.33152354041665, 16.020004699148437], [120.3173644489254, 16.02861496686127], [120.32189564884794, 16.033915996040893], [120.33113516504258, 16.02857634861004], [120.33262013874307, 16.02226900178095]]]}}, {"type": "Feature", "properties": {"name": "Barangay I", "source": "derived (voronoi from OSM place anchors)"}, "geometry": {"type": "Polygon", "coordinates": [[[120.33262013874307, 16.02226900178095], [120.33152354041665, 16.020004699148437], [120.3173644489254, 16.02861496686127], [120.32189564884794, 16.033915996040893], [120.33113516504258, 16.02857634861004], [120.33262013874307, 16.02226900178095]]]}}]}