{"type": "FeatureCollection", "features": [{"type": "Feature", "properties": {"kind": "cemetery green", "name": ""}, "geometry": {"type": "Polygon", "coordinates": [[[120.3316315, 16.040222], [120.3319467, 16.0395131], [120.33217, 16.0395707], [120.3323859, 16.0395847], [120.3320338, 16.0404179], [120.3316315, 16.040222]]]}}, {"type": "Feature", "properties": {"kind": "cemetery green", "name": ""}, "geometry": {"type": "Polygon", "coordinates": [[[120.3290903, 16.0401091], [120.3293746, 16.0402122], [120.3294658, 16.0400678], [120.3302865, 16.0404236], [120.3303831, 16.0401967], [120.3305172, 16.0402431], [120.3307371, 16.0397688], [120.3305869, 16.039676], [120.3309195, 16.0390883], [120.3311448, 16.0392275], [120.3308712, 16.0398358], [120.3310529, 16.0399128], [120.3310341, 16.0399552], [120.3306996, 16.0407071], [120.3305869, 16.0409855], [120.3301524, 16.0408154], [120.3300719, 16.0407278], [120.3299539, 16.0406092], [120.3296228, 16.0409679], [120.3292136, 16.0407999], [120.3290849, 16.0410938], [120.3288167, 16.0409649], [120.3288408, 16.0408411], [120.3287684, 16.0406298], [120.3290903, 16.0401091]]]}}, {"type": "Feature", "properties": {"kind": "cemetery green", "name": ""}, "geometry": {"type": "Polygon", "coordinates": [[[120.3310341, 16.0399552], [120.3306996, 16.0407071], [120.3315391, 16.0411248], [120.3319414, 16.0403772], [120.3310341, 16.0399552]]]}}, {"type": "Feature", "properties": {"kind": "grass", "name": ""}, "geometry": {"type": "Polygon", "coordinates": [[[120.3272696, 16.0420709], [120.3272298, 16.0421129], [120.3272263, 16.04212], [120.3272252, 16.0421279], [120.3272268, 16.0421357], [120.3272308, 16.0421426], [120.3272369, 16.042148], [120.3272445, 16.0421512], [120.3272527, 16.042152], [120.3272608, 16.0421502], [120.3272678, 16.0421461], [120.3273076, 16.0421042], [120.3273111, 16.0420971], [120.3273121, 16.0420892], [120.3273105, 16.0420815], [120.3273064, 16.0420746], [120.3273004, 16.0420693], [120.3272929, 16.0420661], [120.3272847, 16.0420653], [120.3272767, 16.0420669], [120.3272696, 16.0420709]]]}}, {"type": "Feature", "properties": {"kind": "grass", "name": ""}, "geometry": {"type": "Polygon", "coordinates": [[[120.3342497, 16.0409924], [120.334243, 16.0408449], [120.3342591, 16.0408358], [120.3343101, 16.0408416], [120.3343322, 16.0408603], [120.334302, 16.0409248], [120.3342598, 16.0409918], [120.3342497, 16.0409924]]]}}, {"type": "Feature", "properties": {"kind": "grass", "name": ""}, "geometry": {"type": "Polygon", "coordinates": [[[120.3725755, 16.0958219], [120.3725802, 16.0958177], [120.3725865, 16.0958158], [120.3725912, 16.0958164], [120.37261, 16.0958322], [120.3727431, 16.0957024], [120.372724, 16.095683], [120.3727243, 16.0956782], [120.3727277, 16.0956737], [120.3727331, 16.0956737], [120.3727673, 16.0957072], [120.3726093, 16.0958612], [120.3725755, 16.0958341], [120.3725735, 16.0958299], [120.3725735, 16.0958264], [120.3725755, 16.0958219]]]}}, {"type": "Feature", "properties": {"kind": "grass", "name": ""}, "geometry": {"type": "Polygon", "coordinates": [[[120.3726671, 16.095888], [120.3728079, 16.0957491], [120.372811, 16.0957456], [120.3728165, 16.0957439], [120.3728217, 16.0957455], [120.3728248, 16.0957488], [120.3728257, 16.0957545], [120.3728242, 16.0957581], [120.3728205, 16.0957611], [120.3726795, 16.0958981], [120.3726671, 16.095888]]]}}, {"type": "Feature", "properties": {"kind": "grassland", "name": ""}, "geometry": {"type": "Polygon", "coordinates": [[[120.332895, 16.022972], [120.3328118, 16.0231879], [120.3326999, 16.0234785], [120.3326409, 16.0236315], [120.3326133, 16.0236194], [120.3323623, 16.0235093], [120.3326366, 16.0228822], [120.332895, 16.022972]]]}}, {"type": "Feature", "properties": {"kind": "green field", "name": ""}, "geometry": {"type": "Polygon", "coordinates": [[[120.3414291, 16.0505868], [120.3414505, 16.0504412], [120.3416726, 16.0504876], [120.3416209, 16.0506861], [120.341576, 16.0506723], [120.3415451, 16.0506675], [120.3415475, 16.0506016], [120.3414291, 16.0505868]]]}}, {"type": "Feature", "properties": {"kind": "green field", "name": ""}, "geometry": {"type": "Polygon", "coordinates": [[[120.3401619, 16.0580277], [120.3406294, 16.0580727], [120.3412054, 16.0578343], [120.3414635, 16.0584496], [120.3421341, 16.0581874], [120.342898, 16.057924], [120.3430027, 16.0576455], [120.3431628, 16.0569927], [120.3428954, 16.0572486], [120.3426487, 16.0574238], [120.3426078, 16.0575682], [120.3424308, 16.0573117], [120.3424877, 16.0571558], [120.3421981, 16.0571145], [120.3420103, 16.0573981], [120.3403581, 16.0576455], [120.3401619, 16.0580277]]]}}, {"type": "Feature", "properties": {"kind": "scrub", "name": ""}, "geometry": {"type": "Polygon", "coordinates": [[[120.3101619, 16.0334734], [120.3105912, 16.0335715], [120.310732, 16.0331589], [120.3105986, 16.0331223], [120.3104925, 16.0333749], [120.3102258, 16.0332929], [120.3101619, 16.0334734]]]}}, {"type": "Feature", "properties": {"kind": "scrub", "name": ""}, "geometry": {"type": "Polygon", "coordinates": [[[120.3096429, 16.033529], [120.3098819, 16.0335084], [120.3099524, 16.0334495], [120.3101331, 16.0330254], [120.3097716, 16.032844], [120.3095893, 16.0332801], [120.3096154, 16.03342], [120.3096429, 16.033529]]]}}, {"type": "Feature", "properties": {"kind": "scrub", "name": ""}, "geometry": {"type": "Polygon", "coordinates": [[[120.31009, 16.0321865], [120.3099081, 16.0321477], [120.3097545, 16.0319456], [120.3098419, 16.0317932], [120.3101099, 16.0319356], [120.3102234, 16.0319612], [120.31009, 16.0321865]]]}}, {"type": "Feature", "properties": {"kind": "scrub", "name": ""}, "geometry": {"type": "Polygon", "coordinates": [[[120.3092914, 16.0331262], [120.3094533, 16.033116], [120.3095588, 16.0330349], [120.3096715, 16.0327981], [120.3096785, 16.0326594], [120.3095272, 16.0325647], [120.3095236, 16.0325038], [120.309411, 16.0324801], [120.3093512, 16.0325748], [120.3092421, 16.0329334], [120.3092738, 16.0330349], [120.3092914, 16.0331262]]]}}, {"type": "Feature", "properties": {"kind": "wetland / mangrove", "name": ""}, "geometry": {"type": "Polygon", "coordinates": [[[120.3289654, 16.038353], [120.3290574, 16.0382781], [120.3291317, 16.0382781], [120.3292981, 16.0382101], [120.3292981, 16.0381489], [120.3290043, 16.0379992], [120.3289371, 16.0381693], [120.3289087, 16.0382849], [120.3289654, 16.038353]]]}}, {"type": "Feature", "properties": {"kind": "wetland / mangrove", "name": ""}, "geometry": {"type": "Polygon", "coordinates": [[[120.3148185, 16.0205262], [120.314951, 16.0205617], [120.3154286, 16.0210148], [120.3153546, 16.0210859], [120.3154224, 16.0212192], [120.3158168, 16.0214057], [120.3157952, 16.0215212], [120.315635, 16.0213791], [120.3153146, 16.0212132], [120.3149726, 16.0208223], [120.3147831, 16.0206402], [120.31476, 16.0205765], [120.3148185, 16.0205262]]]}}, {"type": "Feature", "properties": {"kind": "wetland / mangrove", "name": ""}, "geometry": {"type": "Polygon", "coordinates": [[[120.312978, 16.0307524], [120.3132194, 16.0307266], [120.3142601, 16.0305617], [120.3140585, 16.0313855], [120.3140456, 16.0314381], [120.3139222, 16.0314381], [120.3137827, 16.0313041], [120.3136861, 16.0313453], [120.312978, 16.0307524]]]}}, {"type": "Feature", "properties": {"kind": "wetland / mangrove", "name": ""}, "geometry": {"type": "Polygon", "coordinates": [[[120.3380823, 16.0345988], [120.3384399, 16.0343641], [120.3388007, 16.0340157], [120.3394465, 16.0335563], [120.3403429, 16.0330345], [120.341225, 16.0324988], [120.3419609, 16.0319665], [120.3423055, 16.0317308], [120.3427041, 16.031358], [120.3424588, 16.0310997], [120.3422964, 16.0312124], [120.3421612, 16.0311847], [120.3419122, 16.0313112], [120.3417102, 16.0310928], [120.3416525, 16.0311413], [120.3414703, 16.0309558], [120.3412448, 16.0311067], [120.34151, 16.0313875], [120.3413585, 16.0315193], [120.341225, 16.031384], [120.3409851, 16.031658], [120.3403267, 16.0321226], [120.3401517, 16.0323982], [120.3398271, 16.0325612], [120.3396395, 16.0326097], [120.3392426, 16.0331679], [120.3390965, 16.0332824], [120.3390965, 16.0334107], [120.3389252, 16.0334783], [120.3387736, 16.0336239], [120.3383191, 16.0343139], [120.3380823, 16.0345988]]]}}, {"type": "Feature", "properties": {"kind": "wetland / mangrove", "name": ""}, "geometry": {"type": "Polygon", "coordinates": [[[120.34359, 16.0338951], [120.3437126, 16.0338676], [120.3435545, 16.0335814], [120.344123, 16.0333018], [120.3443895, 16.0338503], [120.343841, 16.0341], [120.3439475, 16.0342933], [120.3440433, 16.0342433], [120.345186, 16.0335106], [120.3453241, 16.0339074], [120.3446157, 16.0343456], [120.3445345, 16.0343976], [120.3445357, 16.0344276], [120.344366, 16.0345156], [120.3444778, 16.0346899], [120.3445294, 16.0346379], [120.3454076, 16.0342079], [120.3457908, 16.034798], [120.3455335, 16.0349086], [120.3454288, 16.0346272], [120.3452433, 16.0347037], [120.345313, 16.0349669], [120.3453444, 16.0351779], [120.3455284, 16.0358607], [120.3455812, 16.0361306], [120.3456487, 16.0361129], [120.3456309, 16.0360038], [120.3452644, 16.0347147], [120.3454266, 16.0346571], [120.3458241, 16.0359185], [120.3456343, 16.0360023], [120.3456527, 16.0361119], [120.3456868, 16.036103], [120.3467337, 16.0356338], [120.3472576, 16.0350095], [120.3473255, 16.0347961], [120.3474492, 16.0344937], [120.347497, 16.0342883], [120.3475261, 16.0340845], [120.347473, 16.0338908], [120.3472255, 16.033586], [120.3470345, 16.0333245], [120.346863, 16.0331919], [120.3466397, 16.0330342], [120.3463844, 16.0330269], [120.3461612, 16.033166], [120.3460928, 16.0332783], [120.34528, 16.0335259], [120.3449402, 16.032988], [120.3459706, 16.0327938], [120.3460982, 16.033214], [120.3461621, 16.0331406], [120.3461734, 16.0328727], [120.346203, 16.0327236], [120.3463015, 16.032722], [120.3464618, 16.0328132], [120.3465202, 16.0328744], [120.346691, 16.0329099], [120.346946, 16.032303], [120.3469677, 16.0322814], [120.3469407, 16.0322595], [120.3464806, 16.0319062], [120.3463747, 16.0318611], [120.346262, 16.031834], [120.3461574, 16.0318224], [120.3460618, 16.0318185], [120.3459733, 16.032507], [120.3454607, 16.0324198], [120.3452911, 16.0323349], [120.3449719, 16.0323158], [120.3448799, 16.0325342], [120.3446598, 16.0324978], [120.3446071, 16.0325697], [120.3447204, 16.0327511], [120.3447559, 16.0327789], [120.3451756, 16.0334128], [120.3444361, 16.033829], [120.3440253, 16.0329219], [120.3440164, 16.0329731], [120.3441008, 16.0332143], [120.343459, 16.0334725], [120.34359, 16.0338951]]]}}, {"type": "Feature", "properties": {"kind": "wetland / mangrove", "name": ""}, "geometry": {"type": "Polygon", "coordinates": [[[120.3429804, 16.0363466], [120.3414576, 16.0364973], [120.3412646, 16.0366046], [120.3411118, 16.0379702], [120.3408061, 16.0379702], [120.3405796, 16.0379838], [120.3406023, 16.0382041], [120.3405259, 16.0382476], [120.3408241, 16.038437], [120.341115, 16.0384925], [120.3412305, 16.0387528], [120.3414865, 16.0392305], [120.3414675, 16.0382949], [120.3417314, 16.0382864], [120.3421143, 16.0389301], [120.3421596, 16.0393383], [120.342167, 16.0395318], [120.3422671, 16.0395657], [120.3426719, 16.0390649], [120.3424466, 16.0387117], [120.3423473, 16.0383637], [120.3422561, 16.0381704], [120.3423366, 16.0381317], [120.3427175, 16.0387246], [120.342904, 16.0388478], [120.3432231, 16.0390894], [120.3432646, 16.0388458], [120.3433686, 16.0386204], [120.3434202, 16.0384746], [120.3431573, 16.0383019], [120.3429937, 16.0381755], [120.3429106, 16.0380827], [120.3429428, 16.0379771], [120.3429961, 16.0378747], [120.3430045, 16.0378585], [120.3430608, 16.0378198], [120.3425126, 16.0375443], [120.3415438, 16.0370486], [120.3415212, 16.0368075], [120.3416135, 16.0368359], [120.3416902, 16.0367405], [120.3416536, 16.0366735], [120.3433646, 16.0364943], [120.3433576, 16.036856], [120.3434963, 16.0367851], [120.3434702, 16.0365446], [120.3440025, 16.0365161], [120.3441793, 16.0364639], [120.3443804, 16.0364574], [120.344352, 16.0367349], [120.344485, 16.0367384], [120.3445481, 16.0367455], [120.3445179, 16.0366952], [120.3444897, 16.0365992], [120.3444729, 16.0364801], [120.3444462, 16.0363424], [120.344458, 16.0362156], [120.344469, 16.0361803], [120.3444817, 16.0360521], [120.3445226, 16.0359006], [120.3445742, 16.0356937], [120.3445693, 16.0355858], [120.3445548, 16.0354875], [120.3444951, 16.0353258], [120.3444247, 16.0351312], [120.3443711, 16.0350448], [120.3442142, 16.0349069], [120.3441333, 16.0348308], [120.344074, 16.0348172], [120.3436162, 16.0351129], [120.3430462, 16.0353521], [120.3424582, 16.0354458], [120.3414444, 16.0354804], [120.3414264, 16.0353521], [120.3415022, 16.0351406], [120.3415022, 16.034728], [120.3415723, 16.0347042], [120.3418293, 16.0346622], [120.3420052, 16.0346487], [120.3419797, 16.0335365], [120.3416736, 16.0335224], [120.3417078, 16.0346352], [120.3415762, 16.0345833], [120.3415145, 16.0344441], [120.3415349, 16.0341422], [120.3414312, 16.0341462], [120.3414193, 16.0349741], [120.3412662, 16.0355036], [120.3411236, 16.0357616], [120.341182, 16.0358366], [120.3412731, 16.0358049], [120.3412582, 16.0356791], [120.341303, 16.0355426], [120.3427661, 16.0354742], [120.3429072, 16.0358543], [120.3429804, 16.0363466]]]}}, {"type": "Feature", "properties": {"kind": "cemetery green", "name": "Bonuan Public Cemetery"}, "geometry": {"type": "Polygon", "coordinates": [[[120.3526415, 16.0868801], [120.352516, 16.0871382], [120.352496, 16.087316], [120.3525369, 16.0874357], [120.3548171, 16.0887185], [120.3553005, 16.0878754], [120.3538544, 16.0870909], [120.3528842, 16.0865272], [120.3526415, 16.0868801]]]}}, {"type": "Feature", "properties": {"kind": "park", "name": "Children's Park"}, "geometry": {"type": "Polygon", "coordinates": [[[120.3385544, 16.0459819], [120.3385727, 16.045921], [120.3392114, 16.0460987], [120.3391931, 16.0461596], [120.3385544, 16.0459819]]]}}, {"type": "Feature", "properties": {"kind": "cemetery green", "name": "Chinese Cemetery"}, "geometry": {"type": "Polygon", "coordinates": [[[120.3425305, 16.0420008], [120.3425955, 16.0418328], [120.3424887, 16.0417823], [120.3426472, 16.041402], [120.3432207, 16.0416239], [120.3435154, 16.0418856], [120.3436776, 16.0421545], [120.3435751, 16.0423427], [120.3425305, 16.0420008]]]}}, {"type": "Feature", "properties": {"kind": "park", "name": "Crab Building Food Park"}, "geometry": {"type": "Polygon", "coordinates": [[[120.3398941, 16.0551901], [120.3401206, 16.0550274], [120.3405929, 16.0551559], [120.3406178, 16.0551627], [120.3405369, 16.0555912], [120.3403253, 16.0554336], [120.3398941, 16.0551901]]]}}, {"type": "Feature", "properties": {"kind": "park", "name": "DCNHS Park"}, "geometry": {"type": "Polygon", "coordinates": [[[120.3332076, 16.0377546], [120.3334687, 16.0376125], [120.3337125, 16.03703], [120.333387, 16.0370739], [120.3328988, 16.0372836], [120.3331666, 16.0377701], [120.3332076, 16.0377546]]]}}, {"type": "Feature", "properties": {"kind": "park", "name": "Dagupan City Park"}, "geometry": {"type": "Polygon", "coordinates": [[[120.3347333, 16.0436761], [120.3334774, 16.0432912], [120.3334231, 16.0432225], [120.3334317, 16.04314], [120.3336693, 16.0426211], [120.3337514, 16.0426091], [120.3349525, 16.0430154], [120.3349937, 16.0430461], [120.334822, 16.0435964], [120.3347962, 16.0436431], [120.3347333, 16.0436761]]]}}, {"type": "Feature", "properties": {"kind": "cemetery green", "name": "Eternal Gardens"}, "geometry": {"type": "Polygon", "coordinates": [[[120.3289884, 16.0429627], [120.3290473, 16.0428106], [120.3297286, 16.0410113], [120.3296228, 16.0409679], [120.3292136, 16.0407999], [120.3290849, 16.0410938], [120.3288167, 16.0409649], [120.3288408, 16.0408411], [120.3287684, 16.0406298], [120.3290903, 16.0401091], [120.3288381, 16.0399596], [120.3287147, 16.0397637], [120.3289937, 16.0392997], [120.3283929, 16.0389491], [120.3282159, 16.0390161], [120.328063, 16.0389671], [120.3279476, 16.0389439], [120.3277867, 16.0388614], [120.3276204, 16.038779], [120.327481, 16.0386861], [120.3272395, 16.0385418], [120.3268737, 16.0389747], [120.3270265, 16.0391912], [120.3256195, 16.0411247], [120.3267889, 16.0420734], [120.3268747, 16.041996], [120.3272878, 16.0425425], [120.3278296, 16.0434138], [120.3286128, 16.0433004], [120.3286611, 16.0430838], [120.3289521, 16.04304], [120.3290677, 16.043112], [120.3291133, 16.0431867], [120.3291696, 16.0435786], [120.3292742, 16.0435721], [120.3292555, 16.0431584], [120.3292045, 16.043054], [120.3291187, 16.0429921], [120.3289884, 16.0429627]]]}}, {"type": "Feature", "properties": {"kind": "park", "name": "Filipino-Japanese Friendship Garden"}, "geometry": {"type": "Polygon", "coordinates": [[[120.3493487, 16.085623], [120.3497027, 16.0851024], [120.3506629, 16.085672], [120.3503411, 16.0862003], [120.3493487, 16.085623]]]}}, {"type": "Feature", "properties": {"kind": "park", "name": "Forest Area"}, "geometry": {"type": "Polygon", "coordinates": [[[120.3412426, 16.0471018], [120.3412515, 16.0471205], [120.341233, 16.0471563], [120.3415758, 16.0473182], [120.341612, 16.0472487], [120.3416599, 16.0471542], [120.3417328, 16.0470102], [120.3416359, 16.0469635], [120.3413646, 16.0468387], [120.3413, 16.0468079], [120.3412897, 16.0468291], [120.3411914, 16.047028], [120.3412173, 16.0470373], [120.34123, 16.0470688], [120.3412426, 16.0471018]]]}}, {"type": "Feature", "properties": {"kind": "park", "name": "LFC Park"}, "geometry": {"type": "Polygon", "coordinates": [[[120.3443744, 16.0760495], [120.3445058, 16.0757905], [120.34457, 16.0758083], [120.3447628, 16.0753115], [120.3450089, 16.0753807], [120.3447004, 16.076275], [120.3443744, 16.0760495]]]}}, {"type": "Feature", "properties": {"kind": "park", "name": "MacArthur Park"}, "geometry": {"type": "Polygon", "coordinates": [[[120.3345636, 16.0763072], [120.3346281, 16.0759539], [120.3348039, 16.0759835], [120.3349956, 16.0760158], [120.334931, 16.0763692], [120.3347374, 16.0763365], [120.3345636, 16.0763072]]]}}, {"type": "Feature", "properties": {"kind": "park", "name": "Metro Plaza Mini Park"}, "geometry": {"type": "Polygon", "coordinates": [[[120.3347238, 16.0440591], [120.3347633, 16.0439212], [120.334897, 16.0439564], [120.3348576, 16.0440944], [120.3347238, 16.0440591]]]}}, {"type": "Feature", "properties": {"kind": "cemetery green", "name": "Mt. Zion Memorial Park"}, "geometry": {"type": "Polygon", "coordinates": [[[120.3573425, 16.0852694], [120.357762, 16.084545], [120.3573811, 16.0843285], [120.3576842, 16.083911], [120.3574064, 16.0837757], [120.357798, 16.0831901], [120.3581492, 16.0826248], [120.3584068, 16.0822147], [120.3588758, 16.0815651], [120.360363, 16.0826539], [120.3599319, 16.0831894], [120.3593874, 16.0840837], [120.3589314, 16.0838362], [120.3587276, 16.084179], [120.3589556, 16.0843053], [120.358476, 16.0850191], [120.3579014, 16.0845929], [120.3574509, 16.0853378], [120.3573425, 16.0852694]]]}}, {"type": "Feature", "properties": {"kind": "cemetery green", "name": "Roman Catholic Cemetery"}, "geometry": {"type": "Polygon", "coordinates": [[[120.3314747, 16.041264], [120.3315391, 16.0411248], [120.3319414, 16.0403772], [120.3320476, 16.0404414], [120.3322086, 16.0400496], [120.3326803, 16.0402243], [120.3322651, 16.0411629], [120.3320701, 16.0415475], [120.3314747, 16.041264]]]}}]}